SENTINEL-6A             
1 46984U 20086A   26194.86552898 -.00000049  00000+0  52519-4 0  9999
2 46984  66.0413  79.6424 0007807 269.9353  90.0768 12.80930101263741
SENTINEL-6B             
1 66514U 25264A   26194.86587691 -.00000049  00000+0  52061-4 0  9994
2 66514  66.0413  79.7678 0007867 268.7828  91.2286 12.80930106 30581
