{"fetched_at":"2026-07-14T06:35:04.009Z","source":"https://celestrak.org/NORAD/elements/gp.php?NAME=SENTINEL&FORMAT=JSON","constellation":"sentinel-6","records":[{"OBJECT_NAME":"SENTINEL-6A","OBJECT_ID":"2020-086A","EPOCH":"2026-07-13T20:46:21.703872","CLASSIFICATION_TYPE":"U","MEAN_MOTION":12.80930101,"ECCENTRICITY":0.0007807,"INCLINATION":66.0413,"RA_OF_ASC_NODE":79.6424,"ARG_OF_PERICENTER":269.9353,"MEAN_ANOMALY":90.0768,"EPHEMERIS_TYPE":0,"NORAD_CAT_ID":46984,"ELEMENT_SET_NO":999,"REV_AT_EPOCH":26374,"BSTAR":0.000052519,"MEAN_MOTION_DOT":-4.9e-7,"MEAN_MOTION_DDOT":0},{"OBJECT_NAME":"SENTINEL-6B","OBJECT_ID":"2025-264A","EPOCH":"2026-07-13T20:46:51.765024","CLASSIFICATION_TYPE":"U","MEAN_MOTION":12.80930106,"ECCENTRICITY":0.0007867,"INCLINATION":66.0413,"RA_OF_ASC_NODE":79.7678,"ARG_OF_PERICENTER":268.7828,"MEAN_ANOMALY":91.2286,"EPHEMERIS_TYPE":0,"NORAD_CAT_ID":66514,"ELEMENT_SET_NO":999,"REV_AT_EPOCH":3058,"BSTAR":0.000052061,"MEAN_MOTION_DOT":-4.9e-7,"MEAN_MOTION_DDOT":0}]}
